{
  "type": "FeatureCollection",
  "features": [
    {
      "type": "Feature",
      "properties": {
        "norad_id": 64903,
        "name": "CO3D 1",
        "group": "resource",
        "lat": -80.86487335100345,
        "lon": -161.30822597932652,
        "alt_km": 513.1754935094177,
        "timestamp": "2025-12-22T20:43:45.500857+00:00",
        "meta_object_name": "CO3D 1",
        "meta_object_id": "2025-156E",
        "meta_epoch": "2025-12-22T13:14:58.155072",
        "meta_mean_motion": 15.20200981,
        "meta_eccentricity": 8.925e-05,
        "meta_inclination": 97.4341,
        "meta_ra_of_asc_node": 72.6774,
        "meta_arg_of_pericenter": 73.3042,
        "meta_mean_anomaly": 286.8291,
        "meta_ephemeris_type": 0,
        "meta_classification_type": "U",
        "meta_norad_cat_id": 64903,
        "meta_element_set_no": 999,
        "meta_rev_at_epoch": 2269,
        "meta_bstar": 0.00061308173,
        "meta_mean_motion_dot": 0.00013227,
        "meta_mean_motion_ddot": 0,
        "tle_line1": "1 64903U 25156E   25356.55206198  .00013227  00000+0  61308-3 0  9993",
        "tle_line2": "2 64903  97.4341  72.6774 0000892  73.3042 286.8291 15.20200981 22696"
      },
      "geometry": {
        "type": "Point",
        "coordinates": [
          -161.30822597932652,
          -80.86487335100345
        ]
      }
    },
    {
      "type": "Feature",
      "properties": {
        "norad_id": 66514,
        "name": "SENTINEL-6B",
        "group": "resource",
        "lat": -4.1766120617095055,
        "lon": 139.53137364066484,
        "alt_km": 1337.9786180903675,
        "timestamp": "2025-12-22T20:43:45.500866+00:00",
        "meta_object_name": "SENTINEL-6B",
        "meta_object_id": "2025-264A",
        "meta_epoch": "2025-12-12T06:01:21.427680",
        "meta_mean_motion": 12.81479575,
        "meta_eccentricity": 0.0007848,
        "meta_inclination": 66.0385,
        "meta_ra_of_asc_node": 163.4531,
        "meta_arg_of_pericenter": 270.1375,
        "meta_mean_anomaly": 89.8741,
        "meta_ephemeris_type": 0,
        "meta_classification_type": "U",
        "meta_norad_cat_id": 66514,
        "meta_element_set_no": 999,
        "meta_rev_at_epoch": 322,
        "meta_bstar": 0.00018195,
        "meta_mean_motion_dot": -1.9e-07,
        "meta_mean_motion_ddot": 0,
        "tle_line1": "1 66514U 25264A   25346.25094245 -.00000019  00000+0  18195-3 0  9999",
        "tle_line2": "2 66514  66.0385 163.4531 0007848 270.1375  89.8741 12.81479575  3220"
      },
      "geometry": {
        "type": "Point",
        "coordinates": [
          139.53137364066484,
          -4.1766120617095055
        ]
      }
    }
  ]
}